Location,Postcode,City,Latitude,Longitude
Bangunan Kerajaan Negeri,30000,Ipoh,4.59857,101.11988
Bangunan Perak Darul Ridzuan,30000,Ipoh,4.60528,101.07752
Bangunan Sri Kinta,30000,Ipoh,4.5979,101.08011
Dei Lok Flat,30000,Ipoh,4.59857,101.11988
Gunung Cheroh,30000,Ipoh,4.597486729,101.0640176
Hala Istana,30000,Ipoh,4.604290034,101.0792551
Hussein Lane,30000,Ipoh,4.589684927,101.0848825
Jalan Bandar Timah,30000,Ipoh,4.595033221,101.0775553
Jalan Bijeh Timah,30000,Ipoh,4.594454836,101.0784183
Jalan Bijeh Timah Selatan,30000,Ipoh,4.594454836,101.0784183
Jalan Dato Maharaja Lela,30000,Ipoh,4.597269648,101.0761329
Jalan Dato Sagor,30000,Ipoh,4.59663147,101.0757987
Jalan Datoh,30000,Ipoh,4.589598167,101.0786996
Jalan Idris Shah,30000,Ipoh,4.598277509,101.0794909
Jalan Iskandar,30000,Ipoh,4.850261271,100.7395829
Jalan Istana,30000,Ipoh,4.608799956,101.080745
Jalan Kelab,30000,Ipoh,4.675460041,101.1525309
Jalan Koo Chong Kong,30000,Ipoh,4.593913516,101.0758928
Jalan Lang,30000,Ipoh,4.612970604,101.0832485
Jalan Leong B Swee (1 - 56),30000,Ipoh,4.591463759,101.1160489
Jalan Leong Yew Koh,30000,Ipoh,4.585362175,101.0803328
Jalan Lim Boon Swee,30000,Ipoh,4.59857,101.11988
Jalan Maharajalela,30000,Ipoh,4.850667474,100.7449265
Jalan Market,30000,Ipoh,4.595634601,101.0788721
Jalan Othman Talib,30000,Ipoh,4.594142106,101.0774692
Jalan Padang Tembak,30000,Ipoh,4.612517882,101.0809334
Jalan Paloh,30000,Ipoh,4.585628572,101.0755282
Jalan Paloh KP & K,30000,Ipoh,4.585628572,101.0755282
Jalan Panglima,30000,Ipoh,4.596678428,101.0782053
Jalan Panglima Bukit Gantang,30000,Ipoh,4.609156448,101.0782951
Jalan Patrick,30000,Ipoh,4.5932,101.0781
Jalan Persiaran Timah,30000,Ipoh,4.60851747,101.0719349
Jalan Silang,30000,Ipoh,4.592566845,101.0757429
Jalan SP Seenivagam,30000,Ipoh,4.599980422,101.0766189
Jalan Stesyen,30000,Ipoh,4.669974652,101.1575756
Jalan Sultan Idris Shah 1,30000,Ipoh,4.598370001,101.07794
Jalan Sultan Iskandar Shah,30000,Ipoh,4.593633955,101.0828402
Jalan Sultan Iskandar Shah 1,30000,Ipoh,4.595339985,101.07705
Jalan Sultan Yusof,30000,Ipoh,4.591677931,101.0752457
Jalan Tun Sambathan,30000,Ipoh,4.597593737,101.0780414
Kampung Pisang,30000,Ipoh,4.60899,101.08081
Kinta Heights,30000,Ipoh,4.59242,101.07679
Kompleks Islam,30000,Ipoh,4.60312,101.07731
Lintasan Istana,30000,Ipoh,4.604986322,101.0806956
Lorong Anderson,30000,Ipoh,4.606804906,101.0870035
Lorong Bandaraya,30000,Ipoh,4.598792661,101.0905722
Lorong Bijeh Timah,30000,Ipoh,4.594797924,101.0791294
Lorong Cheroh,30000,Ipoh,4.59857,101.11988
Lorong Hussein,30000,Ipoh,4.589684927,101.0848825
Lorong Istana,30000,Ipoh,4.605675091,101.0805949
Lorong Panglima,30000,Ipoh,4.596301816,101.0780856
Market Cross,30000,Ipoh,4.595634601,101.0788721
Market Lane,30000,Ipoh,4.718960023,101.1216808
Medan Jaya Mara,30000,Ipoh,4.56838003,101.1275401
Pei Lok Flat,30000,Ipoh,4.59857,101.11988
People's Park,30000,Ipoh,4.59857,101.11988
Persiaran Bijeh Timah,30000,Ipoh,4.593172759,101.0763019
Persiaran Istana,30000,Ipoh,4.605687671,101.0804389
Taman Istana,30000,Ipoh,4.60392,101.07873
Anjung Tawas Damai,30010,Ipoh,4.66117,101.11013
Anjung Tawas Sinaran,30010,Ipoh,4.65757,101.10775
Hala Kuala Kangsar,30010,Ipoh,4.625035035,101.0825851
Jalan Batu Mamar,30010,Ipoh,4.620675426,101.0820638
Jalan Hock Onn,30010,Ipoh,4.624532298,101.0799186
Jalan Lang,30010,Ipoh,4.612970604,101.0832485
Jalan Lang Indah 1,30010,Ipoh,4.616670001,101.08005
Jalan Osman Noordin,30010,Ipoh,4.637606886,101.088673
Jalan Pasu Bunga,30010,Ipoh,4.624145045,101.0805651
Jalan Sabah,30010,Ipoh,4.616236436,101.0780776
Jalan Sarawak,30010,Ipoh,4.616032685,101.0785609
Jalan Singapore,30010,Ipoh,4.61618291,101.079375
Jalan Suria 1 - 10,30010,Ipoh,4.638829992,101.08532
Jalan Taman 1,30010,Ipoh,4.624042979,101.0797722
Jalan Taman Dua,30010,Ipoh,4.623410057,101.0800201
Jalan Tunku Abdul Rahman,30010,Ipoh,4.59187,101.12309
Kampung Hock Onn,30010,Ipoh,4.624532298,101.0799186
Kampung Tawas,30010,Ipoh,4.64524,101.09783
Kampung Tawas Tambahan,30010,Ipoh,4.65071,101.09336
Kampung Tersusun Tawas Tambahan,30010,Ipoh,4.65071,101.09336
Lang Damai (1 - 5),30010,Ipoh,4.629938733,101.0906329
Lang Indah (D/1 - D/6),30010,Ipoh,4.621110241,101.0931311
Lebuhraya Hock Onn,30010,Ipoh,4.580135658,101.0986729
Lebuhraya Kuala Kangsar,30010,Ipoh,4.665007711,101.1144096
Lebuhraya Loke Lim,30010,Ipoh,4.644275297,101.0970699
Lebuhraya Sin Lok,30010,Ipoh,4.618380035,101.0815001
Lorong Gunung Tasik,30010,Ipoh,4.597486729,101.0640176
Lorong Gurap,30010,Ipoh,4.617380552,101.0794253
Lorong Kuala Kangsar,30010,Ipoh,4.619069781,101.079315
Medan Tasik Perdana,30010,Ipoh,4.641736549,101.0955712
Persiaran Kuala Kangsar,30010,Ipoh,4.633272965,101.0857379
Persiaran Loke Lim,30010,Ipoh,4.645908206,101.0985504
Regat Habib Ariffin,30010,Ipoh,4.615165051,101.0799601
Regat Kuala Kangsar,30010,Ipoh,4.617316844,101.0811256
Taman Che Wan,30010,Ipoh,4.63501,101.08428
Taman Desa Kayangan,30010,Ipoh,4.63882,101.09071
Taman Desa Lang,30010,Ipoh,4.63882,101.09071
Taman Ehsan,30010,Ipoh,4.6514,101.1018
Taman Fu Onn,30010,Ipoh,4.56122,101.08251
Taman Halaman Lang Mewah,30010,Ipoh,4.62404,101.07977
Taman Hock Onn,30010,Ipoh,4.61114,101.12099
Taman Ihsan,30010,Ipoh,4.691670915,100.7200203
Taman Ipoh Grove,30010,Ipoh,4.6289,101.08436
Taman Kam Seng,30010,Ipoh,4.65008,101.10191
Taman Lang Indah,30010,Ipoh,4.61674,101.08084
Taman Lang Suria,30010,Ipoh,4.612970604,101.0832485
Taman Loke Lim,30010,Ipoh,4.64341,101.09609
Taman Malaysia,30010,Ipoh,4.61824,101.08
Taman Milee,30010,Ipoh,4.62126,101.0799
Taman Muhibah Baru,30010,Ipoh,4.63281,101.08685
Taman Pelangi (Jalan Kuala Kangsar),30010,Ipoh,4.621693149,101.0809234
Taman Perindustrian Saujana,30010,Ipoh,4.63155,101.08358
Taman Permai,30010,Ipoh,4.64269,101.09332
Taman Public,30010,Ipoh,4.62341,101.08002
Taman Semarak,30010,Ipoh,4.6372,101.0786
Taman Seri Desa,30010,Ipoh,4.63882,101.09071
Taman Sin Lok,30010,Ipoh,4.61806,101.08112
Taman Tasek Damai,30010,Ipoh,4.65376,101.10398
Taman Tasek Mewah,30010,Ipoh,4.65278,101.09422
Taman Tawas Jaya,30010,Ipoh,4.64869,101.0967
Taman Tawas Mewah,30010,Ipoh,4.66057,101.10205
Taman Tawas Permai,30010,Ipoh,4.64658,101.09259
Taman Tawas Ria,30010,Ipoh,4.645975041,101.0948701
Taman Wangi,30010,Ipoh,4.579206036,101.0781417
Taman Wing Onn,30010,Ipoh,4.63607,101.08896
Tembok Park,30010,Ipoh,4.638155794,101.0909839
Medan Meru Bistari,30020,Ipoh,4.59857,101.11988
Jalan kompleks,30020,Ipoh,4.624064011,101.0689405
Jalan Niaga (1 - 2),30020,Ipoh,4.624840009,101.06964
Jalan Pengkalan Ria (1 - 56),30020,Ipoh,4.541879997,101.07254
Persiaran Tugu,30020,Ipoh,4.836930029,101.0800901
Taman Meru Perdana,30020,Ipoh,4.68409,101.08358
Jalan Lawang,30020,Ipoh,4.623436529,101.0658626
Jalan Lembah Keledang,30020,Ipoh,4.617869688,101.0591745
Jalan Long Jaafar,30020,Ipoh,4.616768922,101.0639112
Jalan Long Jaffar,30020,Ipoh,4.616768922,101.0639112
Jalan Madrasah (Manjoi),30020,Ipoh,4.572184169,101.1253379
Jalan Makmor,30020,Ipoh,4.620486587,101.0607585
Jalan Manjoi,30020,Ipoh,4.613661348,101.0741255
Jalan Masyarakat,30020,Ipoh,4.61582755,101.062355
Jalan Mawar,30020,Ipoh,4.656281106,101.0939489
Jalan Megat Terawih,30020,Ipoh,4.616548261,101.0652068
Jalan Melati,30020,Ipoh,4.6552121,101.0949874
Jalan Melor,30020,Ipoh,4.660806175,101.096497
Jalan Menteri,30020,Ipoh,4.618525013,101.0701632
Jalan Merak,30020,Ipoh,4.624736539,101.0704974
Jalan Merbah,30020,Ipoh,4.630669927,101.0710209
Jalan Merbok,30020,Ipoh,4.611611377,101.1165674
Jalan Merpati,30020,Ipoh,4.6256871,101.0701916
Jalan Meru Bistari A1 - A7,30020,Ipoh,4.672149134,101.0772713
Jalan Meru Bistari B2 - B5,30020,Ipoh,4.672025032,101.0753251
Jalan Muhibbah,30020,Ipoh,4.610766706,101.0704337
Jalan Mutiara,30020,Ipoh,4.63040603,101.0766424
Jalan Muzaffar,30020,Ipoh,4.617694274,101.0634607
Jalan Nikmat,30020,Ipoh,4.618593499,101.0596118
Jalan Nilam,30020,Ipoh,4.626327895,101.0754043
Jalan Padang Kampung Manjoi,30020,Ipoh,4.618466797,101.0730726
Jalan Pasar,30020,Ipoh,4.638180129,101.0615519
Jalan Pauh Kijang,30020,Ipoh,4.617377625,101.0602954
Jalan Pegawai,30020,Ipoh,4.61957666,101.0731972
Jalan Pemimpin,30020,Ipoh,4.623783525,101.0724019
Jalan Pergan,30020,Ipoh,4.627314902,101.0691353
Jalan Perpaduan,30020,Ipoh,4.639017593,101.1411014
Jalan Perwira,30020,Ipoh,4.620396539,101.0685744
Jalan PKNP,30020,Ipoh,4.5959,101.08293
Jalan Puyu,30020,Ipoh,4.62290846,101.0653792
Jalan Rahmat,30020,Ipoh,4.619317788,101.0605788
Jalan Raja,30020,Ipoh,4.613729931,101.0686473
Jalan Raja Suran,30020,Ipoh,4.61837006,101.0649651
Jalan Rebana,30020,Ipoh,4.616670774,101.061831
Jalan Santalia,30020,Ipoh,4.542160323,101.0727896
Jalan Sekolah,30020,Ipoh,4.63534007,101.0592598
Jalan Selamat,30020,Ipoh,4.597121539,101.0908475
Jalan Seluang,30020,Ipoh,4.625451164,101.0657307
Jalan Serindit,30020,Ipoh,4.633882051,101.0683971
Jalan Serindit 2,30020,Ipoh,4.633882051,101.0683971
Jalan Serindit 3,30020,Ipoh,4.633882051,101.0683971
Jalan Sungai Tapah,30020,Ipoh,4.614820031,101.0689551
Jalan Syed Nordin Wafa,30020,Ipoh,4.59857,101.11988
Jalan Taman Tok Pegoh,30020,Ipoh,4.61786884,101.0646172
Jalan Tapah,30020,Ipoh,4.62143231,101.0656287
Jalan Teh Fatimah,30020,Ipoh,4.61785069,101.0720924
Jalan Temoleh,30020,Ipoh,4.624907904,101.0665105
Jalan Tempua,30020,Ipoh,4.625278249,101.0725471
Jalan Tengas,30020,Ipoh,4.623841666,101.0643985
Jalan Tengku Hussein,30020,Ipoh,4.615153766,101.0611432
Jalan Tengku Hussein Ujong,30020,Ipoh,4.615153766,101.0611432
Jalan Teratai,30020,Ipoh,4.656004389,101.0937957
Jalan Terkukur,30020,Ipoh,4.630967187,101.07192
Jalan Tilam,30020,Ipoh,4.624335083,101.0668351
Jalan Tok KeTua,30020,Ipoh,4.611366615,101.0678706
Jalan Tok Pegoh,30020,Ipoh,4.61786884,101.0646172
Jalan Tok Sidang,30020,Ipoh,4.614675208,101.0692346
Jalan Tokong,30020,Ipoh,4.585565967,101.0844011
Jalan Toman,30020,Ipoh,4.624470272,101.065025
Jalan Tun Aria,30020,Ipoh,4.618003676,101.0653542
Jalan Tun Hussin Lama,30020,Ipoh,4.612689585,101.0662384
Jalan Tun Terang,30020,Ipoh,4.613865039,101.0693501
Jalan Undan,30020,Ipoh,4.63029349,101.0692407
Jalan Undan 1,30020,Ipoh,4.6304843,101.0683711
Jalan Undan 2,30020,Ipoh,4.631073178,101.0686991
Jalan Undan 3,30020,Ipoh,4.631663717,101.0690212
Jalan Zamrud,30020,Ipoh,4.626205801,101.0744687
Jelapang,30020,Ipoh,4.63442,101.06311
Jelapang Jaya,30020,Ipoh,4.63635,101.07165
Kampung Baru Jelapang,30020,Ipoh,4.63252,101.06248
Kampung Dato Ahmad Said (1 & 2),30020,Ipoh,4.62612,101.07364
Kampung Dato Ahmad Said Tambahan 1,30020,Ipoh,4.62612,101.07364
Kampung Dato Ahmad Said Tambahan 3,30020,Ipoh,4.63672,101.07777
Kampung Dato Sri Wan Muhammad,30020,Ipoh,4.59857,101.11988
Kampung Manjoi,30020,Ipoh,4.613661348,101.0741255
Kampung Meru Tin,30020,Ipoh,4.43333,100.91667
Kampung Perwira,30020,Ipoh,4.620396539,101.0685744
Kampung Razak,30020,Ipoh,4.774618479,100.9373713
Kampung Sungai Kati,30020,Ipoh,4.6306,101.0728
Kampung Sungai Tapah,30020,Ipoh,4.614820031,101.0689551
Kampung Sungai Tapah Tambahan,30020,Ipoh,4.62328,101.0656
Kampung Tapah Tambahan,30020,Ipoh,4.62328,101.0656
Kampung Tengku Hussein,30020,Ipoh,4.61419,101.06441
Kampung Tersusun Jelapang Jaya,30020,Ipoh,4.64165,101.06925
Kawasan Perindustrian Ringan Jelapang Maju,30020,Ipoh,4.6313,101.04862
Kawasan Perindustrian Taman Meru,30020,Ipoh,4.64657,101.06776
Kawasan Perusahaan Taman Meru,30020,Ipoh,4.57101,101.05456
Kompleks Pejabat Kementerian Hal Ehwal Dalam Negeri,30020,Ipoh,4.59857,101.11988
Laluan Perindustrian Silibin,30020,Ipoh,4.616637195,101.0569734
Laluan Puncak Jelapang Maju 6,30020,Ipoh,4.625235732,101.0470997
Lebuh Jelapang,30020,Ipoh,4.630692653,101.0518275
Lebuh rajawali,30020,Ipoh,4.635338794,101.0711969
Lorong 2,30020,Ipoh,4.590790036,101.0665801
Lorong 3,30020,Ipoh,4.630695041,101.1490451
Lorong 4,30020,Ipoh,4.630854069,101.1484721
Lorong 40,30020,Ipoh,4.852466567,100.7148205
Jalan Alang Ishak,30020,Ipoh,4.617799543,101.0666299
Jalan Aman,30020,Ipoh,4.634396432,101.0586095
Jalan Bangau,30020,Ipoh,4.627236307,101.0701234
Jalan Baru (Jelapang),30020,Ipoh,4.615097021,101.066141
Jalan bayan,30020,Ipoh,4.629538394,101.0709393
Jalan Bebarau,30020,Ipoh,4.637509297,101.0672851
Jalan Belatok,30020,Ipoh,4.635894274,101.0681999
Jalan Belibis,30020,Ipoh,4.59857,101.11988
Jalan Belinda,30020,Ipoh,4.624938148,101.0654719
Jalan Berlian,30020,Ipoh,4.628191156,101.0734181
Jalan Berlian 2,30020,Ipoh,4.62338925,101.0739945
Jalan Bunga Raya,30020,Ipoh,4.569272493,101.0829886
Jalan Bunga Tanjung,30020,Ipoh,4.605378563,101.1092095
Jalan Cecawi,30020,Ipoh,4.630004699,101.0714735
Jalan cempaka,30020,Ipoh,4.657658721,101.0981396
Jalan Cenderawasih,30020,Ipoh,4.628131064,101.0725549
Jalan Daeng Selili,30020,Ipoh,4.618806506,101.065101
Jalan Dahlia,30020,Ipoh,4.65850416,101.0937101
Jalan Dato Sagor,30020,Ipoh,4.59663147,101.0757987
Jalan Datoh (Kampung Manjoi),30020,Ipoh,4.616378884,101.0721659
Jalan Datuk Daeng Selili,30020,Ipoh,4.589598167,101.0786996
Jalan Delima,30020,Ipoh,4.656195054,101.0945401
Jalan Dewan,30020,Ipoh,4.629495836,101.1473422
Jalan Huri,30020,Ipoh,4.59857,101.11988
Jalan Intan,30020,Ipoh,4.637118471,101.0772287
Jalan Intan 2,30020,Ipoh,4.577319983,101.08066
Jalan Intan 3,30020,Ipoh,4.577139981,101.08039
Jalan Intan 4,30020,Ipoh,4.577189979,101.08063
Jalan Intan 5,30020,Ipoh,4.577039985,101.08036
Jalan Jelapang,30020,Ipoh,4.659074866,101.0707401
Jalan Jelapang Maju 2,30020,Ipoh,4.631025058,101.0509551
Jalan Jelawat,30020,Ipoh,4.622860139,101.0638951
Jalan Juara,30020,Ipoh,4.621433874,101.0715713
Jalan Kaloi,30020,Ipoh,4.623351127,101.0641606
Jalan Kebun Bunga,30020,Ipoh,4.765931054,100.8879492
Jalan Kedidi,30020,Ipoh,4.6350652,101.0705737
Jalan Kelah,30020,Ipoh,4.622202037,101.0656424
Jalan Keledang Raya,30020,Ipoh,4.607991592,101.0622153
Jalan Kemuning,30020,Ipoh,4.620776708,101.0655187
Jalan Kenari,30020,Ipoh,4.533146493,101.0674805
Jalan Kledang,30020,Ipoh,4.570957197,101.0366524
Jalan Kolam,30020,Ipoh,4.61397308,101.0669187
Jalan Lama,30020,Ipoh,4.624071734,101.0648967
Lorong 42,30020,Ipoh,4.855111231,100.7123466
Lorong 44,30020,Ipoh,4.851596216,100.7154893
Lorong 46,30020,Ipoh,4.85086374,100.7141123
Lorong 48,30020,Ipoh,4.851810045,100.7126651
Lorong 50,30020,Ipoh,4.850316238,100.7098755
Lorong Bebarau,30020,Ipoh,4.637509297,101.0672851
Lorong Delima,30020,Ipoh,4.622504786,101.0745973
Lorong Kedidi,30020,Ipoh,4.6350652,101.0705737
Lorong Madrasah,30020,Ipoh,4.61227607,101.064412
Lorong Osmaniah,30020,Ipoh,4.61753437,101.0596338
Lorong Pasar,30020,Ipoh,4.623308104,101.0682037
Lorong Sungai Pari Manjoi,30020,Ipoh,4.614011537,101.0705635
Meru Saujana,30020,Ipoh,4.59857,101.11988
Meru Valley Golf,30020,Ipoh,4.64659,101.06014
Padang Tengku Hussein,30020,Ipoh,4.611805341,101.0637407
Per. Puncak Jelapang Maju 1,30020,Ipoh,4.63232,101.04533
Persiaran Jelapang Maju 3,30020,Ipoh,4.628634394,101.0528649
Persiaran Meru Point,30020,Ipoh,4.650568538,101.0715114
Persiaran Silibin Utara,30020,Ipoh,4.617682669,101.0576543
RPT Jelapang Baru,30020,Ipoh,4.63537,101.06455
RPT Jelapang Baru Tambahan,30020,Ipoh,4.623064933,101.06078
Sungai Kati,30020,Ipoh,4.621,101.0756
Taman Halaman Meru Damai,30020,Ipoh,4.66724,101.08877
Taman Jati,30020,Ipoh,4.663098366,101.0731917
Taman Jelapang Indah,30020,Ipoh,4.63606285,101.063452
Taman Jelapang Ria,30020,Ipoh,4.629855376,101.0559077
Taman Kayangan,30020,Ipoh,4.61078,101.12738
Taman Keladang,30020,Ipoh,4.59598,101.04412
"Taman Meru (Fasa 2B, 2C & 3C)",30020,Ipoh,4.64657,101.06776
Taman Meru Fasa 4,30020,Ipoh,4.64657,101.06776
Taman Meru Height,30020,Ipoh,4.64972,101.06442
Taman Meru Impiana,30020,Ipoh,4.64414,101.07421
Taman Meru Jaya,30020,Ipoh,4.66333,101.07262
Taman Meru Permai,30020,Ipoh,4.677708973,101.0837755
Taman Meru Raya,30020,Ipoh,4.678607134,101.0762309
Taman Seri Kayangan,30020,Ipoh,4.62073,101.05645
Taman Seri Meru,30020,Ipoh,4.64552,101.07454
Tingkat Meru Valley 1,30020,Ipoh,4.646219981,101.0623
Tingkat Meru Valley 2,30020,Ipoh,4.650013564,101.0562507
Persiaran Jelapang,30100,Ipoh,4.63606285,101.063452
Persiaran Kilang,30100,Ipoh,4.604297842,101.058809
Persiaran Maxwell,30100,Ipoh,4.59857,101.11988
Persiaran Merdeka,30100,Ipoh,4.618820043,101.0769151
Regat Kilang,30100,Ipoh,4.608564538,101.05705
Regat Labrooy,30100,Ipoh,4.618525042,101.0787351
Regat Maxwell,30100,Ipoh,4.59857,101.11988
Rishah Permai,30100,Ipoh,4.586679673,101.0531579
Rishah Permai 1 - 5,30100,Ipoh,4.586578636,101.0530302
Silibin,30100,Ipoh,4.610655288,101.0578836
Silibin Baru,30100,Ipoh,4.603979621,101.0691331
Solok Labrooy,30100,Ipoh,4.617766613,101.078969
Solok Maxwell,30100,Ipoh,4.59857,101.11988
Taman Alkaf,30100,Ipoh,4.60866,101.06242
Taman Bekor,30100,Ipoh,4.592187522,101.054716
Taman Buloh Emas,30100,Ipoh,4.60414,101.05096
Taman Buntong Jaya,30100,Ipoh,4.59989,101.04717
Taman Buntong Mutiara,30100,Ipoh,4.58802,101.04806
Taman Buntong Ria,30100,Ipoh,4.58802,101.04806
Taman Cherry,30100,Ipoh,4.60525,101.07193
Taman Desa Rishah,30100,Ipoh,4.58379,101.05055
Taman Desa Rishah Indah,30100,Ipoh,4.58685,101.04376
Taman Eden,30100,Ipoh,4.60988,101.07439
Taman Grand Silibin,30100,Ipoh,4.60858,101.06468
Taman Gurmuda,30100,Ipoh,4.61039,101.06131
Taman Idris,30100,Ipoh,4.60996,101.07671
Taman Kandy,30100,Ipoh,4.6064,101.06864
Taman Keladang Jaya,30100,Ipoh,4.6138,101.0646
Taman Keledang Emas,30100,Ipoh,4.59598,101.04412
Taman Keledang Jaya,30100,Ipoh,4.61686,101.05891
Taman Lim,30100,Ipoh,4.60856,101.06968
Taman Mas,30100,Ipoh,4.58513,101.05537
Taman Maxwell,30100,Ipoh,4.60504,101.0694
Taman Merdeka,30100,Ipoh,4.61844,101.07603
Taman Muhibah,30100,Ipoh,4.614972356,101.0628903
Taman Pari,30100,Ipoh,4.61021,101.07462
Taman Pertama,30100,Ipoh,4.59816,101.05738
Taman Risah,30100,Ipoh,4.60623,101.05564
Taman Saz,30100,Ipoh,4.60885,101.06031
Taman Seri Tahan,30100,Ipoh,4.61193,101.05953
Taman Seri Wani,30100,Ipoh,4.61883,101.05415
Taman Silibin,30100,Ipoh,4.61207,101.05519
Taman Silibin Mewah,30100,Ipoh,4.61795,101.05542
Taman Tinggi,30100,Ipoh,4.60231,101.04873
Teluk Kurin,30100,Ipoh,4.59857,101.11988
Buntong,30100,Ipoh,4.5929,101.05895
Buntong Jaya,30100,Ipoh,4.597590416,101.0469798
Buntong Tambahan,30100,Ipoh,4.59237,101.04444
Buntung Ria,30100,Ipoh,4.599470042,101.0489901
Cherry Apartment,30100,Ipoh,4.60759,101.07485
Grand Silibin,30100,Ipoh,4.60858,101.06468
Hala Bekor,30100,Ipoh,4.592187522,101.054716
Hala Pari Garden,30100,Ipoh,4.612615045,101.0744101
Jalan Abdul Manaf,30100,Ipoh,4.609501523,101.0725979
Jalan Charleton,30100,Ipoh,4.604638255,101.0740099
Jalan Cheong Chee,30100,Ipoh,4.605819052,101.0715863
Jalan Damai,30100,Ipoh,4.611338473,101.076175
Jalan Delaila,30100,Ipoh,4.617334889,101.076346
Jalan Edgar,30100,Ipoh,4.611757992,101.0764722
Jalan Gurap,30100,Ipoh,4.617380552,101.0794253
Jalan Guru Nanak,30100,Ipoh,4.607559099,101.0715962
Jalan Habib Abdullah,30100,Ipoh,4.617644532,101.0771901
Jalan Hassan,30100,Ipoh,4.611744076,101.0718959
Jalan Jelapang,30100,Ipoh,4.659074866,101.0707401
Jalan Kampung Manjoi,30100,Ipoh,4.613661348,101.0741255
Jalan Kampung Manjoi Lama,30100,Ipoh,4.61458,101.07413
Jalan Kilat,30100,Ipoh,4.608295556,101.0642714
Jalan Kledang Raya,30100,Ipoh,4.607991592,101.0622153
Jalan Kong Chew Far,30100,Ipoh,4.582193784,101.0846176
Jalan Manjoi,30100,Ipoh,4.613661348,101.0741255
Jalan Merdeka,30100,Ipoh,4.637603961,101.0615331
Jalan Pari,30100,Ipoh,4.610082535,101.0744508
Jalan Rakyat,30100,Ipoh,4.61640522,101.0761696
Jalan Regat Damai,30100,Ipoh,4.611680787,101.0761175
Jalan Regat Merdeka,30100,Ipoh,4.617838616,101.0765226
Jalan Samson,30100,Ipoh,4.615615673,101.0756556
Jalan Silibin,30100,Ipoh,4.600916211,101.0698871
Jalan Sungai,30100,Ipoh,4.617570173,101.0750832
Jalan Sungai Pari (Buntong),30100,Ipoh,4.591631471,101.0609355
Jalan Taman Merdeka,30100,Ipoh,4.615050273,101.075493
Jalan Toh Muda Hashim,30100,Ipoh,4.607261324,101.0675212
Jalan Tun Abdul Razak,30100,Ipoh,4.600409876,101.0702684
Jalan Wayang,30100,Ipoh,4.592432783,101.05676
Kampung Baru Buntong,30100,Ipoh,4.59912,101.06458
Kampung Buntong Jaya,30100,Ipoh,4.597590416,101.0469798
Kampung Chekkadi,30100,Ipoh,4.59857,101.11988
Kampung Gurap,30100,Ipoh,4.617380552,101.0794253
Kampung Hulu Buntong,30100,Ipoh,4.5929,101.05895
Kampung Kacang Putih,30100,Ipoh,4.59082,101.05176
Kampung Kuala Tanggong,30100,Ipoh,4.6066,101.06403
Kampung Santa Singh,30100,Ipoh,4.59857,101.11988
Kampung Telok Keruin,30100,Ipoh,4.1772,100.9545
Kilat Drive,30100,Ipoh,4.608295556,101.0642714
Labrooy Road,30100,Ipoh,4.618525042,101.0787351
Lebuhraya Merdeka,30100,Ipoh,4.637603961,101.0615331
Lengkok Keladang,30100,Ipoh,4.825533055,100.7078372
Lengkok Klendang Raya,30100,Ipoh,4.610512259,101.0592264
Lintasan Idris,30100,Ipoh,4.609967775,101.0767172
Lintasan Jelapang,30100,Ipoh,4.612807325,101.0560756
Lorong Kilat,30100,Ipoh,4.607687551,101.0648745
Lorong Maxwell,30100,Ipoh,4.59857,101.11988
Lorong Pari,30100,Ipoh,4.611431539,101.0706362
Lorong Perhentian,30100,Ipoh,4.590799401,101.0758807
Lorong Silibin,30100,Ipoh,4.60725064,101.0655677
Persiaran Desa Rishah (S) 1/8,30100,Ipoh,4.583992867,101.048739
Persiaran Desa Rishah 11,30100,Ipoh,4.588552175,101.0467095
Bengkel Workshop MBI Falim,30200,Ipoh,4.58216,101.06403
Birch Avenue,30200,Ipoh,4.59857,101.11988
Falim,30200,Ipoh,4.58216,101.06403
Flat Buntong Permai,30200,Ipoh,4.5929,101.05895
Hala Datok,30200,Ipoh,4.616378884,101.0721659
Hala Perusahaan Menglembu 1 & 2,30200,Ipoh,4.577446126,101.0616978
Hala Sungai Pari,30200,Ipoh,4.593441999,101.0686378
Jalan Bijih Timah,30200,Ipoh,4.594454836,101.0784183
Jalan Datok,30200,Ipoh,4.589598167,101.0786996
Jalan Foo Nyit Tse,30200,Ipoh,4.582053848,101.0640006
Jalan Foo Wah Ching,30200,Ipoh,4.57815929,101.0635045
Jalan Gurdawara Crescent,30200,Ipoh,4.597507287,101.0651703
Jalan Gurdawara Sungai Pari,30200,Ipoh,4.597507287,101.0651703
Jalan Janze Avenue,30200,Ipoh,4.59857,101.11988
Jalan Jelf,30200,Ipoh,4.608898659,101.1073916
Jalan Lahat,30200,Ipoh,4.586918098,101.0694266
Jalan Lahat (Falim),30200,Ipoh,4.579754661,101.0638493
Jalan Lee Chok Kai,30200,Ipoh,4.59857,101.11988
Jalan Leong B Swee (88 - 108),30200,Ipoh,4.609920012,101.10912
Jalan Leong Yew Koh,30200,Ipoh,4.585362175,101.0803328
Jalan Madras,30200,Ipoh,4.59085337,101.0604112
Jalan Meyyapa,30200,Ipoh,4.59857,101.11988
Jalan Nehru,30200,Ipoh,4.590360357,101.068844
Jalan Sanders,30200,Ipoh,4.59857,101.11988
Jalan Spooner,30200,Ipoh,4.588375278,101.0637311
Jalan St John,30200,Ipoh,4.601728524,101.0732981
Jalan Sungai Pari,30200,Ipoh,4.592748108,101.0684823
Jalan Thambusamy,30200,Ipoh,4.58839891,101.0695327
Jalan Treacher Selatan,30200,Ipoh,4.590660014,101.0773852
Jalan Tun Abdul Razak,30200,Ipoh,4.600409876,101.0702684
Jalan Tun Perak,30200,Ipoh,4.592368782,101.0702366
Janze Avenue,30200,Ipoh,4.59857,101.11988
JKR Kuarters Lorong Lahat,30200,Ipoh,4.584755238,101.071768
Kampung Paloh,30200,Ipoh,4.58835,101.07218
Kampung Taili,30200,Ipoh,4.88381,101.02424
Kampung Tersusun Sungai Pari,30200,Ipoh,4.58855,101.05782
Kawasan Industri Paloh,30200,Ipoh,4.58628,101.07736
Lahat Avenue,30200,Ipoh,4.577350032,101.065123
Lahat Drive,30200,Ipoh,4.577350032,101.065123
Laluan Perusahaan Menglembu,30200,Ipoh,4.578055238,101.0578719
Lebuhraya Lahat,30200,Ipoh,4.577350032,101.065123
Lengkok Lahat,30200,Ipoh,4.577350032,101.065123
Lengkok Sungai Pari,30200,Ipoh,4.593206232,101.0675232
Lorong Isaac,30200,Ipoh,4.591373424,101.062219
Lorong Keretapi,30200,Ipoh,4.59857,101.11988
Lorong Lahat,30200,Ipoh,4.584755238,101.071768
Lorong Pakianathan,30200,Ipoh,4.59120271,101.0628008
Mariamma Lane,30200,Ipoh,4.591190042,101.0662751
Medan Mara,30200,Ipoh,4.619225035,101.1037051
Medan Perhentian (Kidd),30200,Ipoh,4.59244,101.07285
Pei Lok Appartment,30200,Ipoh,4.59857,101.11988
Persiaran Datoh,30200,Ipoh,4.589973785,101.0741248
Persiaran Falim,30200,Ipoh,4.580525034,101.0625551
Persiaran Guntung,30200,Ipoh,4.597486729,101.0640176
Persiaran KIDD,30200,Ipoh,4.594076628,101.0682407
Persiaran Lahat,30200,Ipoh,4.586157871,101.0722233
Persiaran Nehru,30200,Ipoh,4.590556822,101.0682687
Persiaran Perhentian,30200,Ipoh,4.590799401,101.0758807
Persiaran Tun Perak,30200,Ipoh,4.592368782,101.0702366
Regat Lahat,30200,Ipoh,4.577350032,101.065123
Seberang Paloh,30200,Ipoh,4.555935045,101.0795501
Silibin Drive,30200,Ipoh,4.610655288,101.0578836
Silibin Mews,30200,Ipoh,4.610655288,101.0578836
Solok Lahat,30200,Ipoh,4.577350032,101.065123
Sungai Pari Towers,30200,Ipoh,4.591330123,101.0559964
Taman Birch,30200,Ipoh,4.59019,101.06827
Taman Falim,30200,Ipoh,4.580525034,101.0625551
Taman Falim Indah,30200,Ipoh,4.58343,101.05813
Taman Mas Jaya (Falim),30200,Ipoh,4.58339,101.06073
Taman Wolly,30200,Ipoh,4.624042979,101.0797722
Tingkat Falim,30200,Ipoh,4.580525034,101.0625551
Persiaran Taman Kinta,30250,Ipoh,4.58922503,101.0930251
Pesara Mansion,30250,Ipoh,4.57853239,101.0986201
Regat Canton,30250,Ipoh,4.580665054,101.0980901
Regat Chateau,30250,Ipoh,4.58463131,101.095723
Regat Mansion,30250,Ipoh,4.578781094,101.0992506
Regat Tun Perak,30250,Ipoh,4.597512311,101.0723612
Selasar Chateau,30250,Ipoh,4.586759686,101.0895885
Solok Gopeng,30250,Ipoh,4.588275046,101.0978101
Solok Kampar,30250,Ipoh,4.583784035,101.0990579
St. Hellen,30250,Ipoh,4.59857,101.11988
Taman Chateau,30250,Ipoh,4.59033,101.09245
Taman Cindee,30250,Ipoh,4.624042979,101.0797722
Taman Gopeng,30250,Ipoh,4.5845,101.10057
Taman Kampar,30250,Ipoh,4.58467,101.08877
Taman Kinta,30250,Ipoh,4.58922503,101.0930251
Taman Lebuhraya (1 & 2),30250,Ipoh,4.580135658,101.0986729
Taman Mansion,30250,Ipoh,4.58295,101.09635
Taman Nasional,30250,Ipoh,4.624042979,101.0797722
Taman St Helen,30250,Ipoh,4.624042979,101.0797722
Taman Victoria,30250,Ipoh,4.57893,101.09494
Hala Batu Bungkal,30250,Ipoh,4.578795395,101.0922747
Hala Cavendish,30250,Ipoh,4.579108098,101.1031909
Hala Gopeng,30250,Ipoh,4.585628223,101.098286
Hala Lawan Kuda,30250,Ipoh,4.587397184,101.0958019
Hala Pinji Seni,30250,Ipoh,4.576345909,101.0945501
Housing Trust,30250,Ipoh,4.58402,101.09184
Jalan Abu Bakar,30250,Ipoh,4.581483459,101.0899862
Jalan Ali Pitchay,30250,Ipoh,4.591405952,101.0855499
Jalan Au Kong,30250,Ipoh,4.583502024,101.088387
Jalan Batu Bungkal,30250,Ipoh,4.579068836,101.0939659
Jalan Canton,30250,Ipoh,4.58014504,101.0980401
Jalan Carrier,30250,Ipoh,4.582083457,101.0901444
Jalan Chamberlain,30250,Ipoh,4.587172646,101.0913461
Jalan Chamberlain Hulu,30250,Ipoh,4.588226047,101.0854768
Jalan Chateau,30250,Ipoh,4.585370811,101.0938659
Jalan Che Wan,30250,Ipoh,4.590235518,101.0863601
Jalan Chew Boon Juan,30250,Ipoh,4.585500839,101.0878764
Jalan Chin Hin Hwa,30250,Ipoh,4.588702643,101.0916354
Jalan Chong Ah Mooi,30250,Ipoh,4.585005035,101.0933801
Jalan Chua Cheng Bok,30250,Ipoh,4.590900769,101.0860439
Jalan Chung On Siew,30250,Ipoh,4.591422552,101.0863101
Jalan Chung Thye Phin Bawah,30250,Ipoh,4.589975358,101.0868782
Jalan CM Yusuf,30250,Ipoh,4.589038511,101.0834893
Jalan CM Yusuf Hulu,30250,Ipoh,4.589038511,101.0834893
Jalan Foo Kan Yit,30250,Ipoh,4.587585345,101.0891495
Jalan Gopal Singh,30250,Ipoh,4.578830045,101.0890751
Jalan Gopeng (1 - 117),30250,Ipoh,4.588787691,101.095132
Jalan Haji Yusuff,30250,Ipoh,4.60572209,101.1115977
Jalan Holnberg,30250,Ipoh,4.580540058,101.0893201
Jalan Hussein,30250,Ipoh,4.589684927,101.0848825
"Jalan Kennedy (152,182,199)",30250,Ipoh,4.59857,101.11988
Jalan Khoo Cheng Chow,30250,Ipoh,4.581085029,101.0894451
Jalan Khoo Chong San,30250,Ipoh,4.582557586,101.0905003
Jalan Kimberly,30250,Ipoh,4.57890219,101.094928
Jalan Leong Kim Seng,30250,Ipoh,4.583326611,101.0889393
Jalan Leow How Kit,30250,Ipoh,4.61974004,101.1040701
Jalan Lim Seng Chew,30250,Ipoh,4.59017573,101.0892895
Jalan Mohd Naseh,30250,Ipoh,4.661600498,100.9317359
Jalan Mui Fah,30250,Ipoh,4.579187525,101.0964803
Jalan Ng Keng Tan,30250,Ipoh,4.579945048,101.0892251
Jalan Permaisuri Bainun,30250,Ipoh,4.581435834,101.1024034
Jalan Pinji Seni,30250,Ipoh,4.576345909,101.0945501
"Jalan President Kennedy (152,182, 199)",30250,Ipoh,4.59857,101.11988
Jalan Raja Nazrin Shah,30250,Ipoh,4.587348111,101.0983601
Jalan Raja Permaisuri Bainun,30250,Ipoh,4.585600447,101.0857348
Jalan Rose,30250,Ipoh,4.582692402,101.0880937
Jalan Sarmukh,30250,Ipoh,4.584001862,101.0974757
Jalan Saw Seong Peck,30250,Ipoh,4.582165819,101.0877503
Jalan Seruan,30250,Ipoh,4.589655392,101.0917393
Jalan St Helen,30250,Ipoh,4.59857,101.11988
Jalan Taman Lebuhraya,30250,Ipoh,4.580135658,101.0986729
"Jalan Tiga, Jalan Dua, Jalan Satu",30250,Ipoh,4.581943039,101.0918943
Jalan Voon Thean So,30250,Ipoh,4.58595504,101.0899401
Jalan Weng Lok Mansion Flat,30250,Ipoh,4.59857,101.11988
Jalan Windsor,30250,Ipoh,4.589678359,101.0958328
Jalan Yang Kalsom,30250,Ipoh,4.590888657,101.0843895
Lebuh Batu Bungkal,30250,Ipoh,4.581579654,101.0939443
Lebuh Chateau,30250,Ipoh,4.585444596,101.0972246
Lebuhraya Batu Bungkul,30250,Ipoh,4.579068836,101.0939659
Lebuhraya Canton,30250,Ipoh,4.58014504,101.0980401
Lebuhraya Cavendish,30250,Ipoh,4.580900836,101.1011991
Lebuhraya Chateau,30250,Ipoh,4.585444596,101.0972246
Lebuhraya Kampar,30250,Ipoh,4.583784035,101.0990579
Lebuhraya Mansion Park,30250,Ipoh,4.579069979,101.0980266
Lengkok Batu Bungkal,30250,Ipoh,4.580520718,101.0928583
Lengkok Cavendish,30250,Ipoh,4.579141913,101.1013481
Lengkok Chateau,30250,Ipoh,4.588757404,101.0901577
Lengkok Kampar,30250,Ipoh,4.583095051,101.0882551
Lengkok Mansion,30250,Ipoh,4.579069979,101.0980266
Lorong Cavendish,30250,Ipoh,4.57862891,101.1012504
Lorong Chateau,30250,Ipoh,4.585291969,101.0951322
Lorong Chung Thye Ping,30250,Ipoh,4.589137278,101.0857175
Lorong Hong Kong,30250,Ipoh,4.578104462,101.0950341
Lorong Taman Kinta,30250,Ipoh,4.586870051,101.0927651
Medan Chateau,30250,Ipoh,4.584472256,101.0969403
Persiaran Batu Bungkal,30250,Ipoh,4.579994331,101.0934689
Persiaran Canton,30250,Ipoh,4.580084939,101.0973935
Persiaran Cavendish,30250,Ipoh,4.579906525,101.1026626
Persiaran Chateau,30250,Ipoh,4.584952904,101.096668
Persiaran Hong Kong,30250,Ipoh,4.578666982,101.095412
Persiaran Kampar,30250,Ipoh,4.583784035,101.0990579
Persiaran Kowloon,30250,Ipoh,4.578715547,101.09613
Persiaran Mansion,30250,Ipoh,4.578559728,101.0980208
Persiaran Shanghai,30250,Ipoh,4.580559654,101.0966209
Anderson Drive,30300,Ipoh,4.606804906,101.0870035
Hala Pasar,30300,Ipoh,4.638180129,101.0615519
Hala Pasar Baru,30300,Ipoh,4.594434241,101.0815029
Horley Street,30300,Ipoh,4.598961447,101.0830104
Jalan Aylesbury,30300,Ipoh,4.59857,101.11988
Jalan Chapman,30300,Ipoh,4.59857,101.11988
Jalan Che Tak,30300,Ipoh,4.591974927,101.0852446
Jalan Church,30300,Ipoh,4.593176126,101.0871245
Jalan Clare,30300,Ipoh,4.59857,101.11988
Jalan Clark,30300,Ipoh,4.59857,101.11988
Jalan Dass,30300,Ipoh,4.599667292,101.082522
Jalan Dato Onn Jaafar,30300,Ipoh,4.599600714,101.0844194
Jalan Dato Tahwil Azar,30300,Ipoh,4.591358228,101.0835578
Jalan Dato Tahwil Azhar,30300,Ipoh,4.591358228,101.0835578
Jalan Dato Yeoh,30300,Ipoh,4.589598167,101.0786996
Jalan Foo Choo Choon,30300,Ipoh,4.596555047,101.0823301
Jalan Foo Yet Kai,30300,Ipoh,4.59969517,101.0842098
Jalan Hala Pasar Baru,30300,Ipoh,4.594434241,101.0815029
Jalan Horley,30300,Ipoh,4.598961447,101.0830104
Jalan Jubli,30300,Ipoh,4.59857,101.11988
Jalan Lau Ek Ching,30300,Ipoh,4.598680732,101.0855782
Jalan Laxamana,30300,Ipoh,4.59864072,101.0820813
Jalan Leong Sin Nam,30300,Ipoh,4.597228409,101.085116
Jalan Lim Bo Seng,30300,Ipoh,4.601052352,101.0815368
Jalan Masjid,30300,Ipoh,4.592645035,101.0841351
Jalan Musa Aziz,30300,Ipoh,4.609301274,101.0791456
Jalan Mustafa Al Bakri,30300,Ipoh,4.594935641,101.0849894
Jalan Onn Jaafar,30300,Ipoh,4.599600714,101.0844194
Jalan Raja Ikram (1 - 28),30300,Ipoh,4.614013844,101.0689231
Jalan Raja Ikram (30 - 135),30300,Ipoh,4.613559482,101.0701059
Jalan Raja Musa Aziz,30300,Ipoh,4.591495665,101.0824201
Jalan Russel,30300,Ipoh,4.592282856,101.0831709
Jalan Sultan Iskandar,30300,Ipoh,4.593633955,101.0828402
Jalan Thawil Azhar,30300,Ipoh,4.591358228,101.0835578
Jalan Theatre,30300,Ipoh,4.594002863,101.0860534
Jalan Toh Puan Chah,30300,Ipoh,4.598710665,101.0804396
Jalan Verasamy,30300,Ipoh,4.598915487,101.0819424
Jalan Yau Tet Sin,30300,Ipoh,4.594042862,101.083683
Kampung Java,30300,Ipoh,4.60013,101.08708
Lintas Pasar Baru,30300,Ipoh,4.594190048,101.0820501
Lintasan Baru,30300,Ipoh,4.615097021,101.066141
Lintasan Pasar Baru,30300,Ipoh,4.594190048,101.0820501
Lorong Dulcieville,30300,Ipoh,4.59857,101.11988
Lorong Laxmana,30300,Ipoh,4.59864072,101.0820813
Lorong Menteri,30300,Ipoh,4.595536255,101.0906738
Persiaran Anderson,30300,Ipoh,4.606804906,101.0870035
Taman Dr Seenivagam,30300,Ipoh,4.60505,101.08537
Taman Jubilee,30300,Ipoh,4.5952,101.08402
Tingkat Pasar,30300,Ipoh,4.594676521,101.0818826
Waller Court,30300,Ipoh,4.60061,101.08473
Taman Badaraya Impiana,30350,Ipoh,4.61391,101.10609
Brash Drive,30350,Ipoh,4.596246915,101.1093124
Hala Raja Di Hilir,30350,Ipoh,4.600147414,101.1161559
Hala Tambun,30350,Ipoh,4.633483206,101.154288
Jalan Aziz Ismail,30350,Ipoh,4.59857,101.11988
Jalan Brash,30350,Ipoh,4.596246915,101.1093124
Jalan Caldwell,30350,Ipoh,4.591746446,101.0953986
Jalan Ceylon,30350,Ipoh,4.5978587,101.1013915
Jalan Foo Chong Nyit,30350,Ipoh,4.595284149,101.0938431
Jalan Francois,30350,Ipoh,4.599695033,101.1149301
Jalan Garland,30350,Ipoh,4.59857,101.11988
Jalan Golf Club,30350,Ipoh,4.59857,101.11988
Jalan Hang Tuah,30350,Ipoh,4.584997981,101.1086125
Jalan Hassan Adli,30350,Ipoh,4.592849103,101.108757
Jalan Kelab Golf,30350,Ipoh,4.593398491,101.1073354
Jalan Lasam,30350,Ipoh,4.597584006,101.0963214
Jalan Lumba Kuda,30350,Ipoh,4.589302536,101.0968764
Jalan Oh Chen Keat,30350,Ipoh,4.58555655,101.1045444
Jalan Sturruck,30350,Ipoh,4.59857,101.11988
Jalan Tambun,30350,Ipoh,4.61266043,101.1425727
Jalan Teh Hian Tat,30350,Ipoh,4.583529149,101.1033943
Jalan Towers,30350,Ipoh,4.595697841,101.1066035
Jalan Tun Dr Ismail,30350,Ipoh,4.588367613,101.1060605
Jalan Tun Suffian,30350,Ipoh,4.592853101,101.1107165
Jalan Watson,30350,Ipoh,4.594992892,101.1071275
Jalan Woodward,30350,Ipoh,4.59459677,101.1019519
Jalan Zain Azrai,30350,Ipoh,4.592108947,101.108864
Kediaman Menteri Besar Perak,30350,Ipoh,4.59857,101.11988
Laluan Raja Di Hilir,30350,Ipoh,4.602187181,101.1141387
Laluan Tambun,30350,Ipoh,4.633483206,101.154288
Lebuh Lasam,30350,Ipoh,4.596050315,101.0963213
Lebuhraya Lasam,30350,Ipoh,4.597584006,101.0963214
Lebuhraya Tambun,30350,Ipoh,4.633483206,101.154288
Lorong Abdul Jalil,30350,Ipoh,4.597100038,101.0914251
Lorong Cheah Chiang Lim,30350,Ipoh,4.596865715,101.0984509
Lorong Haji Marzuki,30350,Ipoh,4.586740047,101.1069401
Lorong Oh Cheng Kiat,30350,Ipoh,4.584565602,101.1035911
Lorong Raja Di Hilir,30350,Ipoh,4.600724045,101.1180721
Lorong Rani,30350,Ipoh,4.587285305,101.1071603
Lorong Selamat,30350,Ipoh,4.621427258,101.0671047
Lorong Tambun,30350,Ipoh,4.633483206,101.154288
Lorong Tun Dr Ismail,30350,Ipoh,4.588083062,101.1104353
Persiaran Brash,30350,Ipoh,4.594879457,101.1128358
Persiaran Tambun,30350,Ipoh,4.633483206,101.154288
Flora Tropika,30350,Ipoh,4.58424741,101.0987601
Galeri Suria,30450,Ipoh,4.60552,101.09879
Greentown,30450,Ipoh,4.60053,101.09515
Jalan 1 Greentown,30450,Ipoh,4.601035346,101.0968388
Jalan Abdul Jalil,30450,Ipoh,4.597100038,101.0914251
Jalan Chin Choong Sam,30450,Ipoh,4.600212179,101.09825
Jalan Dato Sri Ahmad Said,30450,Ipoh,4.589598167,101.0786996
Jalan Ghazali Jawi,30450,Ipoh,4.603820068,101.0987117
Jalan Greenhill,30450,Ipoh,4.597941963,101.0876619
Jalan Greentown Square,30450,Ipoh,4.600548601,101.0930095
Jalan Hospital,30450,Ipoh,4.604167909,101.0886988
Jalan Idris,30450,Ipoh,4.609967775,101.0767172
Jalan Seenivagam,30450,Ipoh,4.5987889,101.0871086
Jalan Sri Kepayang,30450,Ipoh,4.606876315,101.0985702
Jalan Wan Mohd Salleh,30450,Ipoh,4.595139956,101.0922761
Lebuhraya Cecil Rae,30450,Ipoh,4.606369663,101.0990675
Lebuhraya Hart,30450,Ipoh,4.580135658,101.0986729
Lorong Hospital,30450,Ipoh,4.601342124,101.0983959
Persiaran Abdul Jalil,30450,Ipoh,4.597100038,101.0914251
Persiaran Bukit Hijau,30450,Ipoh,4.212019818,101.2532391
Persiaran Geleri Kepayang,30450,Ipoh,4.606355042,101.0983751
Persiaran Greentown,30450,Ipoh,4.599246065,101.0941697
Persiaran Kepayang,30450,Ipoh,4.612601457,101.0999991
Sungai Senam,30450,Ipoh,4.607339573,101.1075352
DYMM Sultan Perak,30500,Ipoh,4.76329,100.95461
YAB Menteri Besar Perak,30502,Ipoh,4.59857,101.11988
Pusat  Khidmat Kontraktor,30503,Ipoh,4.59857,101.11988
Setiausaha Kerajaan Negeri,30503,Ipoh,4.59857,101.11988
Unit Perancang Ekonomi,30503,Ipoh,4.59857,101.11988
Biro Bantuan Guaman,30504,Ipoh,4.59857,101.11988
Mahkamah Tinggi,30506,Ipoh,4.59826,101.07473
Biro Pengaduan Awam,30505,Ipoh,4.5958,101.08291
Amanah Raya Berhad,30508,Ipoh,4.5959,101.08293
Jabatan Perkhidmatan Awam,30510,Ipoh,4.61998,101.11442
Penasihat Undang-Undang Negeri,30512,Ipoh,4.59857,101.11988
Jabatan Pemegang Harta,30516,Ipoh,4.59857,101.11988
Jabatan Perpaduan Negara,30517,Ipoh,4.637854868,101.1543418
Ketua Audit Negeri,30518,Ipoh,4.59857,101.11988
Suruhanjaya Perkhidmatan Awam,30520,Ipoh,4.59857,101.11988
Majlis Agama Islam Perak,30519,Ipoh,4.59591,101.08294
Setiausaha Keselamatan Negeri,30524,Ipoh,4.59857,101.11988
Jabatan Kilang & Jentera,30534,Ipoh,4.59857,101.11988
Jabatan Perhubungan Perusahaan,30536,Ipoh,4.60071,101.08781
Jabatan Sumber Manusia,30532,Ipoh,4.59857,101.11988
Jabatan Tenaga Rakyat,30540,Ipoh,4.5959,101.08293
Pendaftar Kesatuan Sekerja,30542,Ipoh,4.59857,101.11988
Pejabat Rela Negeri,30546,Ipoh,4.77841,100.94109
Jabatan Pendaftaran Negara,30551,Ipoh,4.59511,101.08236
Jabatan Pendaftar Pertubuhan,30552,Ipoh,4.59511,101.08236
Jabatan Imigresen,30550,Ipoh,4.5959,101.08293
Percetakan Nasional Bhd,30554,Ipoh,4.59857,101.11988
Jabatan KebajIkan Masyarakat,30564,Ipoh,4.5936,101.07355
Jabatan Hal Ehwal Orang Asli,30548,Ipoh,4.59792,101.08003
Jabatan Pertahanan Awam,30556,Ipoh,4.59842,101.10647
Jabatan Belia & Sukan,30570,Ipoh,4.624938148,101.0654719
Ketua Polis Negeri,30560,Ipoh,4.59857,101.11988
Lembaga Air Perak,30580,Ipoh,4.60209,101.07579
Jabatan Tanah & Galian,30576,Ipoh,4.59857,101.11988
Jabatan Kerja Raya,30582,Ipoh,4.60294,101.07685
Hospital Ipoh,30586,Ipoh,4.59456,101.09569
Jabatan Kesihatan,30590,Ipoh,4.59391,101.07527
Jabatan Kastam & Eksais Di Raja,30596,Ipoh,4.59857,101.11988
Akauntan Negeri,30594,Ipoh,4.59857,101.11988
Jabatan Penilaian Harta,30592,Ipoh,4.59786,101.08026
Pegawai Kewangan Negeri,30592,Ipoh,4.59857,101.11988
Jabatan Kemajuan Masyarakat (Kemas),30606,Ipoh,4.59449,100.88177
Lembaga Hasil Dalam Negeri,30600,Ipoh,4.5959,101.08293
Pejabat Mara Negeri,30609,Ipoh,4.84859,100.73921
Bahagian Pelesenan - Kementerian Penerangan,30610,Ipoh,4.59857,101.11988
Jabatan Penerangan,30612,Ipoh,4.81888,101.07407
Jabatan Penyiaran,30614,Ipoh,4.5774,101.07638
Jabatan PendidIkan,30604,Ipoh,4.59857,101.11988
Jabatan Pengangkutan Jalan,30620,Ipoh,4.5959,101.08293
Jabatan Perikanan,30628,Ipoh,5.01736,100.432
Jabatan Pengairan & Saliran,30626,Ipoh,4.5774,101.07638
Jabatan Pendaftar Perniagaan,30622,Ipoh,4.59511,101.08236
Institut PenyelidIkan Haiwan,30630,Ipoh,4.59342,101.11856
Jabatan Haiwan,30630,Ipoh,4.61998,101.11442
Keretapi Tanah Melayu Bhd,30621,Ipoh,4.59857,101.11988
Jabatan Pertanian,30632,Ipoh,4.5959,101.08293
Kementerian Pertahanan - 2 Briged Infanteri,30634,Ipoh,4.59857,101.11988
Majlis Bandaraya Ipoh,30644,Ipoh,4.5987,101.09055
Jabatan Perancang Bandar & Desa,30646,Ipoh,4.5959,101.08293
Jabatan Perhutanan,30660,Ipoh,4.67561,101.07345
MaKmal Penyiasat Kajibumi,30658,Ipoh,4.59857,101.11988
Jabatan Bomba & Penyelamat,30648,Ipoh,4.59857,101.11988
Jabatan Kimia,30662,Ipoh,4.59621,101.11928
Tenaga Nasional Berhad,30673,Ipoh,4.54539,101.0668
Jabatan Perhilitan,30664,Ipoh,4.59857,101.11988
Jabatan Agama Islam Perak,30676,Ipoh,4.5959,101.08293
Padi & Beras Nasional (Bernas),30661,Ipoh,4.59857,101.11988
Pegawai Kemajuan Negeri,30674,Ipoh,4.59857,101.11988
Pos Malaysia Berhad,30670,Ipoh,4.59511,101.08236
Jabatan BeKalan Elektrik,30668,Ipoh,4.59857,101.11988
Telekom Malaysia  Berhad,30668,Ipoh,4.8664,100.75481
Jabatan Galian,30656,Ipoh,4.59857,101.11988
Penyimpan Mohor Besar Raja-Raja,30682,Ipoh,4.59857,101.11988
Ipoh - Peti Surat 1 - 73,30700,Ipoh,4.591463759,101.1160489
Ipoh - Peti Surat 75,30700,Ipoh,4.608660003,101.10644
Suruhanjaya Pilihan Raya Negeri,30690,Ipoh,4.59857,101.11988
Ipoh - Peti Surat 76 - 92,30710,Ipoh,4.59857,101.11988
Ipoh - Peti Surat 94 - 150,30710,Ipoh,4.59857,101.11988
Ipoh - Peti Surat  151 - 216,30720,Ipoh,4.59857,101.11988
Ipoh - Peti Surat  218 - 225,30730,Ipoh,4.59857,101.11988
Ipoh - Peti Surat  226 - 249,30730,Ipoh,4.59857,101.11988
Ipoh - Peti Surat  251 - 253,30730,Ipoh,4.59857,101.11988
Ipoh - Peti Surat  376 - 420,30750,Ipoh,4.59857,101.11988
Ipoh - Peti Surat  422 - 449,30750,Ipoh,4.59857,101.11988
Ipoh - Peti Surat  451 - 525,30750,Ipoh,4.59857,101.11988
Ipoh - Peti Surat  255 - 300,30740,Ipoh,4.59857,101.11988
Ipoh - Peti Surat  301 - 375,30740,Ipoh,4.59857,101.11988
Ipoh - Peti Surat  526 - 600,30760,Ipoh,4.59857,101.11988
Ipoh - Peti Surat  601 - 675,30770,Ipoh,4.59857,101.11988
Ipoh - Peti Surat  676 - 750,30780,Ipoh,4.59857,101.11988
Ipoh - Peti Surat  826 - 900,30800,Ipoh,4.59857,101.11988
Ipoh - Peti Surat  751 - 825,30790,Ipoh,4.59857,101.11988
Ipoh - Peti Surat  901 - 975,30810,Ipoh,4.59857,101.11988
Ipoh - Peti Surat  976 - 1050,30820,Ipoh,4.59857,101.11988
Ipoh - Peti Surat 1051 - 1125,30830,Ipoh,4.59857,101.11988
Ipoh - Peti Surat 1126 & ke atas,30840,Ipoh,4.59857,101.11988
Ipoh - Peti Surat    74,30900,Ipoh,4.61100002,101.10849
Ipoh - Peti Surat    93,30902,Ipoh,4.608200004,101.10673
Ipoh - Peti Surat   217,30904,Ipoh,4.59857,101.11988
Ipoh - Peti Surat  250,30906,Ipoh,4.59857,101.11988
Ipoh - Peti Surat  421,30910,Ipoh,4.59857,101.11988
Ipoh - Peti Surat  254,30908,Ipoh,4.59857,101.11988
Ipoh - Peti Surat  450,30912,Ipoh,4.59857,101.11988
Badan Pencegah Rasuah,30988,Ipoh,4.59857,101.11988
Ipoh - Beg BerKunci,30990,Ipoh,4.59857,101.11988
RPT Jaya Tambahan 2,31350,Ipoh,4.8,100.9
Jalan Palma (B/6 - B/15),31350,Ipoh,4.41522,100.96175
Jalan Rapat Ria (1 - 4),31350,Ipoh,4.59857,101.11988
Jalan Tasik Botani (A/1 - A/7),31350,Ipoh,5.16111,100.68044
Pengakalan Tiara,31350,Ipoh,4.541906668,101.0729075
Persiaran Tasik Botani (1 - 2),31350,Ipoh,4.525305035,101.0287701
Pinggiran Rapat Ria,31350,Ipoh,4.63972,101.1304
Ampang Baru,31350,Ipoh,4.621691575,101.0562687
Bandar Sri Botani,31350,Ipoh,4.577350032,101.065123
Bougainvilla 3/3A,31350,Ipoh,4.53397,101.03244
Bougainvilla A/1 - A/3,31350,Ipoh,4.5393,101.08067
Bougainvilla B/1 -  B/12,31350,Ipoh,4.53266,101.04957
Desa Ampang,31350,Ipoh,4.541906668,101.0729075
Desa Kaya,31350,Ipoh,4.555786714,101.082212
Desa Perwra,31350,Ipoh,4.5344,101.08732
Desa Pulai Jaya,31350,Ipoh,4.777479407,100.8422157
Gua Kek Long Tong,31350,Ipoh,4.55611802,101.0762615
Gunung Rapat,31350,Ipoh,4.664304285,101.103721
Hill City,31350,Ipoh,4.66203445,101.1050964
Jalan Berkat,31350,Ipoh,4.66164503,101.1048301
Jalan Gopeng (118  - 211),31350,Ipoh,4.576582902,101.0769685
Jalan Gunung Rapat,31350,Ipoh,4.581477027,101.0829584
Jalan Lapangan Terbang,31350,Ipoh,4.56848,101.07701
Jalan Margosa C/1 - C/6,31350,Ipoh,4.57037,101.0769
Jalan Mawar,31350,Ipoh,4.57027,101.07464
Jalan Piper,31350,Ipoh,4.57037,101.0769
Jalan Raja Musa Mahadi,31350,Ipoh,4.54531,101.08321
Jalan Rokam,31350,Ipoh,4.544485564,101.0670942
Jalan Usaha,31350,Ipoh,4.568783248,101.0794118
Kampung Baru Gunung Rapat,31350,Ipoh,4.582971505,101.0848986
Kampung Jaya Tambahan,31350,Ipoh,4.583789363,101.0817101
Kampung Melayu,31350,Ipoh,4.57701262,101.0775464
Kampung Rapat,31350,Ipoh,4.57754593,101.0704402
Kampung Rapat Jaya,31350,Ipoh,4.578634373,101.0711524
Kampung Rapat Jaya Tambahan,31350,Ipoh,4.582931577,101.0859078
Kampung Sri Ampang A,31350,Ipoh,4.5522,101.08048
Kampung Sri Ampang B,31350,Ipoh,4.577085068,101.0771136
Kampung Sungai Rapat,31350,Ipoh,4.587019659,101.08347
Kampung Sungai Rokam,31350,Ipoh,4.564249424,101.0769245
Kampung Tersusun Seri Ampang,31350,Ipoh,4.573690053,101.0811901
Kampung Yee Mahia,31350,Ipoh,4.583353905,101.0781815
Kawasan Perindustrian Rengan Sri Rapat,31350,Ipoh,4.56208755,101.0644546
Lapangan Terbang Ipoh,31350,Ipoh,4.55766541,101.0837739
Lebuhraya Harilela,31350,Ipoh,4.575243143,101.0707209
Lebuhraya Mawar,31350,Ipoh,4.584006842,101.0786628
Lorong Gopeng,31350,Ipoh,4.58771292,101.0827522
Margosa D/1 -  D/11,31350,Ipoh,4.56566,101.07906
Medan Gopeng,31350,Ipoh,4.56642,101.08065
Medan Lapangan Agenda,31350,Ipoh,4.57487,101.07898
Medan Lapangan Permata,31350,Ipoh,4.624042979,101.0797722
Medan Lapangan Sentosa,31350,Ipoh,4.54099,101.0783
Palma A/12 - A/13,31350,Ipoh,4.570382341,101.0809994
Palma D/1 - D/1A,31350,Ipoh,4.24614,100.75734
Palma D/2 - D/3,31350,Ipoh,4.535258258,101.0769016
"Palma D/3, D/3A",31350,Ipoh,4.58168,101.07722
Palma D/4 - D/8,31350,Ipoh,4.624042979,101.0797722
Palma D/5A - D/8A,31350,Ipoh,4.57193,101.08403
Palma( B/4 - B/5),31350,Ipoh,4.58568,101.08317
Persiaran Gopeng,31350,Ipoh,4.637118471,101.0772287
Persiaran Gunung Rapat 1,31350,Ipoh,4.58486,101.07915
Persiaran Margosa 4,31350,Ipoh,4.624042979,101.0797722
Persiaran Palma 3,31350,Ipoh,4.5497,101.09906
Pulai Mutiara 1 - 5,31350,Ipoh,4.55769,101.08675
"Pulai Mutiara 2A, 2B, 3A",31350,Ipoh,4.55769,101.08675
Pulai Sentosa 1 - 2,31350,Ipoh,4.61114,101.12099
Rapat Endah,31350,Ipoh,4.53836,101.07665
Rapat Setia,31350,Ipoh,4.572247821,101.0779955
Regat Rokam Satu,31350,Ipoh,4.56926,101.08298
Sam Poh Tong,31350,Ipoh,4.63237,101.124
Sungai Rokam,31350,Ipoh,4.55237,101.08409
Taman Ampang,31350,Ipoh,4.5618,101.07256
Taman Cemerlang Ampang,31350,Ipoh,4.56822,101.08551
Taman Cemerlang Emas,31350,Ipoh,4.583531447,101.0818957
Taman Cemerlang Rapat,31350,Ipoh,4.646149042,101.067735
Taman Desa Indah,31350,Ipoh,4.579817015,101.0791628
Taman Desa Kebudayaan,31350,Ipoh,4.56122,101.08251
Taman Desa Rapat,31350,Ipoh,4.571416193,101.0775196
Taman Golf,31350,Ipoh,4.5453,101.07405
Taman Halaman Ampang Jaya,31350,Ipoh,4.55006,101.06546
Taman Halaman Ampang Mewah,31350,Ipoh,4.55872,101.07806
Taman Harilela,31350,Ipoh,4.54417,101.08294
Taman Harmoni,31350,Ipoh,4.55452,101.07815
Taman Hillview,31350,Ipoh,4.571463354,101.0825135
Taman Indah Jaya,31350,Ipoh,4.57681,101.10182
Taman Ipoh Jaya,31350,Ipoh,4.55332,101.06906
Taman Ipoh Jaya Timur,31350,Ipoh,4.55074,101.06844
Taman Ipoh Jaya Timur 1,31350,Ipoh,4.55128,101.07142
Taman Lapangan Indah,31350,Ipoh,4.582692402,101.0880937
Taman Lapangan Jaya,31350,Ipoh,4.609983992,101.094514
Taman Lapangan Melodi,31350,Ipoh,4.55872,101.07806
Taman Lapangan Pelangi,31350,Ipoh,4.55482,101.06413
Taman Lapangan Permai,31350,Ipoh,4.55668,101.07397
Taman Lapangan Terbang,31350,Ipoh,4.559849112,101.0718483
Taman Maju Rapat,31350,Ipoh,4.5644,101.07734
Taman Mutiara,31350,Ipoh,4.624042979,101.0797722
Taman Panglima,31350,Ipoh,4.55625,101.09315
Taman Pelangi (Ampang),31350,Ipoh,4.624042979,101.0797722
Taman Pelangi (Rapat),31350,Ipoh,4.58318,101.08087
Taman Pelangi (Song Choon),31350,Ipoh,4.55691,101.06375
Taman Raja Ekram,31350,Ipoh,4.59857,101.11988
Taman Rapat,31350,Ipoh,4.624042979,101.0797722
Taman Rapat Aman,31350,Ipoh,4.55679,101.08319
Taman Rapat Bistari,31350,Ipoh,4.579678108,101.0761257
Taman Rapat Damai,31350,Ipoh,4.59857,101.11988
Taman Rapat Indah,31350,Ipoh,4.59857,101.11988
Taman Rapat Koperasi,31350,Ipoh,4.577147625,101.0785268
Taman Rapat Murni,31350,Ipoh,4.556165252,101.0637555
Taman Rapat Permai,31350,Ipoh,4.584857987,101.0788501
Taman Rapat Setia Baru,31350,Ipoh,4.571553248,101.0820092
Taman Rasi Ampang,31350,Ipoh,4.615097021,101.066141
Taman Razaki,31350,Ipoh,4.588634433,101.0809939
Taman River Villas,31350,Ipoh,4.584006842,101.0786628
Taman Saikat,31350,Ipoh,4.569272493,101.0829886
Taman Saujana,31350,Ipoh,4.590903589,101.0821591
Taman Seri Ampang,31350,Ipoh,4.583855657,101.0845303
Taman Seri Berjaya,31350,Ipoh,4.581477027,101.0829584
Taman Seri Rapat,31350,Ipoh,4.581477027,101.0829584
Taman Seri Rokam,31350,Ipoh,4.586539886,101.0832528
Taman Song Choon,31350,Ipoh,4.564249424,101.0769245
Taman Sri Ampang,31350,Ipoh,4.59857,101.11988
Taman Taufik,31350,Ipoh,4.583054973,101.0845309
Taman Timah,31350,Ipoh,4.59857,101.11988
Taman Tunas Jaya,31350,Ipoh,4.577789873,101.0832567
TUDM Ipoh,31350,Ipoh,4.583438769,101.0836085
Zon Perindustrian Ringan Kinta Jaya,31350,Ipoh,4.582193784,101.0846176
Taman Ipoh - Beg Berkunci,31409,Ipoh,4.57581426,101.077064
Enklaf Residence,31400,Ipoh,4.59857,101.11988
Laluan Bandar Baru Tambun (1 - 10),31400,Ipoh,4.584253201,101.0844884
Taman Putra Impian,31400,Ipoh,4.585362175,101.0803328
Jalan Devadason,31400,Ipoh,4.562854054,101.0783899
Jalan Diary,31400,Ipoh,4.581205751,101.0753484
Jalan Edward Morera,31400,Ipoh,4.575118262,101.0801853
Jalan endah,31400,Ipoh,4.583531447,101.0818957
Jalan Foo Win Yin,31400,Ipoh,4.568783248,101.0794118
Jalan Ghazali,31400,Ipoh,4.584365503,101.0841626
Jalan Haji Wahab,31400,Ipoh,4.568621524,101.0787951
Jalan Hussain Nordin,31400,Ipoh,4.582971505,101.0848986
Jalan Johor,31400,Ipoh,4.58771292,101.0827522
Jalan Kakatua,31400,Ipoh,4.583192828,101.0870715
Jalan Kamarudin Isa,31400,Ipoh,4.559244966,101.1001692
Jalan Kasselring,31400,Ipoh,4.556660016,101.07594
Pesara Ipoh,31400,Ipoh,4.59857,101.11988
Puncak Tambun Indah,31400,Ipoh,4.579955224,101.0823357
Pusat Bandar Bercham,31400,Ipoh,4.581900043,101.0869751
Regat Fair Park,31400,Ipoh,4.611235449,101.1412707
Regat Harimau,31400,Ipoh,4.573245538,101.0887674
Regat Seri Cempaka,31400,Ipoh,4.63534007,101.0592598
Regat Sungai Senam,31400,Ipoh,4.580666637,101.0790798
Rumah Pangsa Bercam,31400,Ipoh,4.580882452,101.077806
Scrivenor Road,31400,Ipoh,4.575820041,101.089449
Selasah Tebing Kinta,31400,Ipoh,4.576080956,101.0775244
Selasar Canning,31400,Ipoh,4.579746663,101.0777704
Solok Canning,31400,Ipoh,4.59857,101.11988
Solok Harimau,31400,Ipoh,4.58148026,101.0795111
Solok Stadium,31400,Ipoh,4.585565967,101.0844011
Solok Tambun,31400,Ipoh,4.575210048,101.0784365
Sungai Senam Walk,31400,Ipoh,4.578961661,101.0760248
Taman Anda,31400,Ipoh,4.3653,101.1287
Taman Anjung Bercam Indah,31400,Ipoh,4.55996,101.06374
Taman Anjung Bercam Megah,31400,Ipoh,4.55996,101.06374
Taman Anjung Bercham,31400,Ipoh,4.59857,101.11988
Taman Anjung Bercham Elit,31400,Ipoh,4.59283,101.08294
Taman Anjung Bercham Utara,31400,Ipoh,4.58835,101.07218
Taman Arena Putra,31400,Ipoh,4.56502,101.07381
Taman Asia,31400,Ipoh,4.56995,101.08023
Taman Baru Tambun,31400,Ipoh,4.57147,101.07577
Taman Bercam Suria,31400,Ipoh,4.78333,100.86667
Taman Bercham Aman,31400,Ipoh,4.538228305,101.0367543
Taman Bercham Baru,31400,Ipoh,4.56182,101.06375
Taman Bercham Indah,31400,Ipoh,4.55983,101.06998
Taman Bercham Jaya,31400,Ipoh,4.56182,101.06375
Taman Bercham Maju,31400,Ipoh,4.58146,101.07485
Taman Bersatu,31400,Ipoh,4.573963734,101.0713104
Taman Bintang,31400,Ipoh,5.43333,101.11667
Taman Boulevard,31400,Ipoh,5.43333,101.11667
Taman Cahaya,31400,Ipoh,4.57581426,101.077064
Taman Cahaya (Bercham Selatan),31400,Ipoh,4.562210764,101.0797847
Taman Cahaya Bercham,31400,Ipoh,4.570382341,101.0809994
Taman Cahaya Tasek,31400,Ipoh,4.539574144,101.0580159
Taman Canning,31400,Ipoh,4.580135658,101.0986729
Taman Cempaka,31400,Ipoh,4.579678108,101.0761257
Taman Cempaka Sari,31400,Ipoh,4.581019401,101.0763485
